ALOS-4 (DAICHI-4)       
1 60182U 24123A   24274.50152555  .00007043  00000+0  94897-3 0  9999
2 60182  97.9219   9.6437 0001467  97.8661 262.2717 14.79473105 13518
